[{"OBJECT_NAME":"STARLINK-1048","OBJECT_ID":"2019-074AS","EPOCH":"2026-03-09T12:30:43.141824","MEAN_MOTION":15.53328855,"ECCENTRICITY":1.717e-5,"INCLINATION":53.052,"RA_OF_ASC_NODE":169.6561,"ARG_OF_PERICENTER":86.0579,"MEAN_ANOMALY":274.045,"EPHEMERIS_TYPE":0,"CLASSIFICATION_TYPE":"U","NORAD_CAT_ID":44753,"ELEMENT_SET_NO":999,"REV_AT_EPOCH":34897,"BSTAR":0.0013672925,"MEAN_MOTION_DOT":0.00088315,"MEAN_MOTION_DDOT":0},{"OBJECT_NAME":"STARLINK-4720","OBJECT_ID":"2022-111AD","EPOCH":"2026-03-09T17:15:59.769792","MEAN_MOTION":15.52966516,"ECCENTRICITY":0.00033906,"INCLINATION":53.211,"RA_OF_ASC_NODE":239.7837,"ARG_OF_PERICENTER":149.7852,"MEAN_ANOMALY":210.3356,"EPHEMERIS_TYPE":0,"CLASSIFICATION_TYPE":"U","NORAD_CAT_ID":53800,"ELEMENT_SET_NO":999,"REV_AT_EPOCH":19416,"BSTAR":0.00052142465,"MEAN_MOTION_DOT":0.00032713,"MEAN_MOTION_DDOT":0}]
